0 SL-12 R/B(2)
1 22966U 94002D   13277.58432333 -.00000233  00000-0  10000-3 0    18
2 22966 014.1871 026.9692 0043571 025.1607 335.0596 00.99474332 70946
0 SL-12 R/B(2)
1 22966U 94002D   13279.59478786 -.00000271  00000-0  10000-3 0    26
2 22966 014.1895 026.9466 0043552 025.1959 335.0176 00.99474282 70960
0 SL-12 R/B(2)
1 22966U 94002D   13282.61052006 -.00000317  00000-0  10000-3 0    38
2 22966 014.1932 026.9128 0043557 025.2692 334.9435 00.99473824 70997
0 SL-12 R/B(2)
1 22966U 94002D   13286.63152596 -.00000347  00000-0  10000-3 0    54
2 22966 014.1984 026.8674 0043486 025.4588 334.7489 00.99472554 71038
0 SL-12 R/B(2)
1 22966U 94002D   13290.65253894  .00000000  00000-0  10000-3 0    60
2 22966 014.2011 026.8227 0043378 025.8132 334.3795 00.99467191 71074
0 SL-12 R/B(2)
1 22966U 94002D   13290.65254919 -.00000330  00000-0  10000-3 0    66
2 22966 014.2032 026.8222 0043460 025.6103 334.5767 00.99470746 71071
